{
  "type": "FeatureCollection",
  "features": [
    {
      "type": "Feature",
      "properties": {
        "norad_id": 58701,
        "name": "TIANMU-1 16",
        "group": "weather",
        "lat": 60.352773864757296,
        "lon": 5.592825024871926,
        "alt_km": 489.22055843955604,
        "timestamp": "2025-12-17T10:52:53.992324+00:00",
        "meta_object_name": "TIANMU-1 16",
        "meta_object_id": "2024-004B",
        "meta_epoch": "2025-12-16T23:20:06.999072",
        "meta_mean_motion": 15.24490821,
        "meta_eccentricity": 0.00043512,
        "meta_inclination": 97.4563,
        "meta_ra_of_asc_node": 171.8109,
        "meta_arg_of_pericenter": 277.0937,
        "meta_mean_anomaly": 82.9806,
        "meta_ephemeris_type": 0,
        "meta_classification_type": "U",
        "meta_norad_cat_id": 58701,
        "meta_element_set_no": 999,
        "meta_rev_at_epoch": 10799,
        "meta_bstar": 0.00023089583,
        "meta_mean_motion_dot": 5.604e-05,
        "meta_mean_motion_ddot": 0,
        "tle_line1": "1 58701U 24004B   25350.97230323  .00005604  00000+0  23090-3 0  9996",
        "tle_line2": "2 58701  97.4563 171.8109 0004351 277.0937  82.9806 15.24490821107997"
      },
      "geometry": {
        "type": "Point",
        "coordinates": [
          5.592825024871926,
          60.352773864757296
        ]
      }
    },
    {
      "type": "Feature",
      "properties": {
        "norad_id": 58702,
        "name": "TIANMU-1 17",
        "group": "weather",
        "lat": -23.846716128341402,
        "lon": -10.618140262599248,
        "alt_km": 497.10692085950996,
        "timestamp": "2025-12-17T10:52:53.992340+00:00",
        "meta_object_name": "TIANMU-1 17",
        "meta_object_id": "2024-004C",
        "meta_epoch": "2025-12-17T00:32:16.484064",
        "meta_mean_motion": 15.24535381,
        "meta_eccentricity": 0.00035408,
        "meta_inclination": 97.4597,
        "meta_ra_of_asc_node": 172.2731,
        "meta_arg_of_pericenter": 279.8173,
        "meta_mean_anomaly": 80.2664,
        "meta_ephemeris_type": 0,
        "meta_classification_type": "U",
        "meta_norad_cat_id": 58702,
        "meta_element_set_no": 999,
        "meta_rev_at_epoch": 10799,
        "meta_bstar": 0.00022426509,
        "meta_mean_motion_dot": 5.447e-05,
        "meta_mean_motion_ddot": 0,
        "tle_line1": "1 58702U 24004C   25351.02241301  .00005447  00000+0  22427-3 0  9990",
        "tle_line2": "2 58702  97.4597 172.2731 0003540 279.8173  80.2664 15.24535381107996"
      },
      "geometry": {
        "type": "Point",
        "coordinates": [
          -10.618140262599248,
          -23.846716128341402
        ]
      }
    },
    {
      "type": "Feature",
      "properties": {
        "norad_id": 58703,
        "name": "TIANMU-1 18",
        "group": "weather",
        "lat": -63.765359205269114,
        "lon": -171.67858312812547,
        "alt_km": 497.559567856777,
        "timestamp": "2025-12-17T10:52:53.992359+00:00",
        "meta_object_name": "TIANMU-1 18",
        "meta_object_id": "2024-004D",
        "meta_epoch": "2025-12-17T00:08:18.254112",
        "meta_mean_motion": 15.2452074,
        "meta_eccentricity": 0.00028794,
        "meta_inclination": 97.4614,
        "meta_ra_of_asc_node": 172.4528,
        "meta_arg_of_pericenter": 279.0331,
        "meta_mean_anomaly": 81.058,
        "meta_ephemeris_type": 0,
        "meta_classification_type": "U",
        "meta_norad_cat_id": 58703,
        "meta_element_set_no": 999,
        "meta_rev_at_epoch": 10799,
        "meta_bstar": 0.00022805215,
        "meta_mean_motion_dot": 5.538e-05,
        "meta_mean_motion_ddot": 0,
        "tle_line1": "1 58703U 24004D   25351.00576683  .00005538  00000+0  22805-3 0  9994",
        "tle_line2": "2 58703  97.4614 172.4528 0002879 279.0331  81.0580 15.24520740107994"
      },
      "geometry": {
        "type": "Point",
        "coordinates": [
          -171.67858312812547,
          -63.765359205269114
        ]
      }
    },
    {
      "type": "Feature",
      "properties": {
        "norad_id": 58990,
        "name": "INSAT-3DS",
        "group": "weather",
        "lat": -0.030189573325146855,
        "lon": -28.34924992445866,
        "alt_km": 35783.66935001407,
        "timestamp": "2025-12-17T10:52:53.992377+00:00",
        "meta_object_name": "INSAT-3DS",
        "meta_object_id": "2024-033A",
        "meta_epoch": "2025-12-16T18:52:59.316960",
        "meta_mean_motion": 1.00272629,
        "meta_eccentricity": 0.00011288,
        "meta_inclination": 0.0476,
        "meta_ra_of_asc_node": 117.7852,
        "meta_arg_of_pericenter": 151.4492,
        "meta_mean_anomaly": 181.7799,
        "meta_ephemeris_type": 0,
        "meta_classification_type": "U",
        "meta_norad_cat_id": 58990,
        "meta_element_set_no": 999,
        "meta_rev_at_epoch": 4524,
        "meta_bstar": 0,
        "meta_mean_motion_dot": -1.32e-06,
        "meta_mean_motion_ddot": 0,
        "tle_line1": "1 58990U 24033A   25350.78679765 -.00000132  00000+0  00000+0 0  9998",
        "tle_line2": "2 58990   0.0476 117.7852 0001128 151.4492 181.7799  1.00272629 45245"
      },
      "geometry": {
        "type": "Point",
        "coordinates": [
          -28.34924992445866,
          -0.030189573325146855
        ]
      }
    },
    {
      "type": "Feature",
      "properties": {
        "norad_id": 59051,
        "name": "METEOR-M2 4",
        "group": "weather",
        "lat": -0.527626253702366,
        "lon": 128.20781877228686,
        "alt_km": 824.948960612307,
        "timestamp": "2025-12-17T10:52:53.992400+00:00",
        "meta_object_name": "METEOR-M2 4",
        "meta_object_id": "2024-039A",
        "meta_epoch": "2025-12-16T23:54:23.452128",
        "meta_mean_motion": 14.22402002,
        "meta_eccentricity": 0.0006808,
        "meta_inclination": 98.6771,
        "meta_ra_of_asc_node": 307.8383,
        "meta_arg_of_pericenter": 346.2272,
        "meta_mean_anomaly": 13.8719,
        "meta_ephemeris_type": 0,
        "meta_classification_type": "U",
        "meta_norad_cat_id": 59051,
        "meta_element_set_no": 999,
        "meta_rev_at_epoch": 9336,
        "meta_bstar": 2.8314484e-05,
        "meta_mean_motion_dot": 1.9e-07,
        "meta_mean_motion_ddot": 0,
        "tle_line1": "1 59051U 24039A   25350.99610477  .00000019  00000+0  28314-4 0  9997",
        "tle_line2": "2 59051  98.6771 307.8383 0006808 346.2272  13.8719 14.22402002 93367"
      },
      "geometry": {
        "type": "Point",
        "coordinates": [
          128.20781877228686,
          -0.527626253702366
        ]
      }
    },
    {
      "type": "Feature",
      "properties": {
        "norad_id": 60133,
        "name": "GOES 19",
        "group": "weather",
        "lat": 0.001475255111013144,
        "lon": 174.34943622196144,
        "alt_km": 35789.73538403799,
        "timestamp": "2025-12-17T10:52:53.992419+00:00",
        "meta_object_name": "GOES 19",
        "meta_object_id": "2024-119A",
        "meta_epoch": "2025-12-16T14:42:29.575584",
        "meta_mean_motion": 1.00272183,
        "meta_eccentricity": 0.00010513,
        "meta_inclination": 0.0145,
        "meta_ra_of_asc_node": 178.3561,
        "meta_arg_of_pericenter": 142.7664,
        "meta_mean_anomaly": 269.8144,
        "meta_ephemeris_type": 0,
        "meta_classification_type": "U",
        "meta_norad_cat_id": 60133,
        "meta_element_set_no": 999,
        "meta_rev_at_epoch": 513,
        "meta_bstar": 0,
        "meta_mean_motion_dot": -2.25e-06,
        "meta_mean_motion_ddot": 0,
        "tle_line1": "1 60133U 24119A   25350.61284231 -.00000225  00000+0  00000+0 0  9990",
        "tle_line2": "2 60133   0.0145 178.3561 0001051 142.7664 269.8144  1.00272183  5130"
      },
      "geometry": {
        "type": "Point",
        "coordinates": [
          174.34943622196144,
          0.001475255111013144
        ]
      }
    },
    {
      "type": "Feature",
      "properties": {
        "norad_id": 65815,
        "name": "FENGYUN 3H",
        "group": "weather",
        "lat": 16.71464893811663,
        "lon": -71.68132533579796,
        "alt_km": 826.1145251046419,
        "timestamp": "2025-12-17T10:52:53.992436+00:00",
        "meta_object_name": "FENGYUN 3H",
        "meta_object_id": "2025-219A",
        "meta_epoch": "2025-12-16T22:57:49.677408",
        "meta_mean_motion": 14.19905913,
        "meta_eccentricity": 6.727e-05,
        "meta_inclination": 98.6589,
        "meta_ra_of_asc_node": 290.4557,
        "meta_arg_of_pericenter": 100.3764,
        "meta_mean_anomaly": 259.7489,
        "meta_ephemeris_type": 0,
        "meta_classification_type": "U",
        "meta_norad_cat_id": 65815,
        "meta_element_set_no": 999,
        "meta_rev_at_epoch": 1152,
        "meta_bstar": 4.9895383e-05,
        "meta_mean_motion_dot": 6.3e-07,
        "meta_mean_motion_ddot": 0,
        "tle_line1": "1 65815U 25219A   25350.95682497  .00000063  00000+0  49895-4 0  9996",
        "tle_line2": "2 65815  98.6589 290.4557 0000672 100.3764 259.7489 14.19905913 11525"
      },
      "geometry": {
        "type": "Point",
        "coordinates": [
          -71.68132533579796,
          16.71464893811663
        ]
      }
    }
  ]
}